start=new Date('2022-11-14T00:00:00.000Z').valueOf();
sats=[{"OBJECT_NAME":"STARLINK-3748","EPOCH":"2022-11-13T18:27:08.997696","OBJECT_TYPE":"PAYLOAD","MEAN_ANOMALY":"307.4216","RCS_SIZE":"LARGE","FILE":"3653957","REF_FRAME":"TEME","COUNTRY_CODE":"US","APOAPSIS":"540.998","CENTER_NAME":"EARTH","ELEMENT_SET_NO":"999","REV_AT_EPOCH":"3140","RA_OF_ASC_NODE":"149.6393","GP_ID":"217693064","TLE_LINE1":"1 52267U 22041G   22317.76885414  .00001315  00000-0  10067-3 0  9996","ARG_OF_PERICENTER":"52.6949","PERIAPSIS":"538.370","MEAN_MOTION_DDOT":"0.0000000000000","MEAN_MOTION_DOT":"0.00001315","PERIOD":"95.436","EPHEMERIS_TYPE":"0","LAUNCH_DATE":"2022-04-21","SEMIMAJOR_AXIS":"6917.819","INCLINATION":"53.2161","ECCENTRICITY":"0.00018990","CLASSIFICATION_TYPE":"U","OBJECT_ID":"2022-041G","MEAN_MOTION":"15.08860111","SITE":"AFETR","DECAY_DATE":null,"BSTAR":"0.00010067000000","TLE_LINE2":"2 52267  53.2161 149.6393 0001899  52.6949 307.4216 15.08860111 31401","NORAD_CAT_ID":"52267","TIME_SYSTEM":"UTC","MEAN_ELEMENT_THEORY":"SGP4"},{"CLASSIFICATION_TYPE":"U","SITE":"AFETR","MEAN_MOTION":"15.08832395","OBJECT_ID":"2022-041H","DECAY_DATE":null,"MEAN_ELEMENT_THEORY":"SGP4","TIME_SYSTEM":"UTC","NORAD_CAT_ID":"52268","TLE_LINE2":"2 52268  53.2171 149.4066 0002096  51.0816 309.0363 15.08832395 31419","BSTAR":"-0.00014485000000","MEAN_MOTION_DOT":"-0.00002592","MEAN_MOTION_DDOT":"0.0000000000000","PERIAPSIS":"538.319","PERIOD":"95.438","EPHEMERIS_TYPE":"0","INCLINATION":"53.2171","ECCENTRICITY":"0.00020960","LAUNCH_DATE":"2022-04-21","SEMIMAJOR_AXIS":"6917.904","CENTER_NAME":"EARTH","APOAPSIS":"541.219","ELEMENT_SET_NO":"999","TLE_LINE1":"1 52268U 22041H   22317.82405140 -.00002592  00000-0 -14485-3 0  9996","RA_OF_ASC_NODE":"149.4066","GP_ID":"217693815","REV_AT_EPOCH":"3141","ARG_OF_PERICENTER":"51.0816","EPOCH":"2022-11-13T19:46:38.040960","OBJECT_NAME":"STARLINK-3746","RCS_SIZE":"LARGE","MEAN_ANOMALY":"309.0363","OBJECT_TYPE":"PAYLOAD","COUNTRY_CODE":"US","REF_FRAME":"TEME","FILE":"3653957"},{"OBJECT_TYPE":"PAYLOAD","MEAN_ANOMALY":"309.1162","RCS_SIZE":"LARGE","OBJECT_NAME":"STARLINK-3791","EPOCH":"2022-11-13T18:21:51.285024","FILE":"3653957","REF_FRAME":"TEME","COUNTRY_CODE":"US","ELEMENT_SET_NO":"999","APOAPSIS":"541.197","CENTER_NAME":"EARTH","ARG_OF_PERICENTER":"51.0022","REV_AT_EPOCH":"3140","GP_ID":"217694067","RA_OF_ASC_NODE":"149.6698","TLE_LINE1":"1 52269U 22041J   22317.76517691  .00000842  00000-0  70963-4 0  9993","PERIOD":"95.437","PERIAPSIS":"538.225","MEAN_MOTION_DDOT":"0.0000000000000","MEAN_MOTION_DOT":"0.00000842","SEMIMAJOR_AXIS":"6917.846","LAUNCH_DATE":"2022-04-21","ECCENTRICITY":"0.00021480","INCLINATION":"53.2179","EPHEMERIS_TYPE":"0","OBJECT_ID":"2022-041J","MEAN_MOTION":"15.08851371","SITE":"AFETR","CLASSIFICATION_TYPE":"U","BSTAR":"0.00007096300000","TLE_LINE2":"2 52269  53.2179 149.6698 0002148  51.0022 309.1162 15.08851371 31400","TIME_SYSTEM":"UTC","NORAD_CAT_ID":"52269","MEAN_ELEMENT_THEORY":"SGP4","DECAY_DATE":null},{"APOAPSIS":"540.654","CENTER_NAME":"EARTH","ELEMENT_SET_NO":"999","REV_AT_EPOCH":"3141","RA_OF_ASC_NODE":"149.4145","GP_ID":"217692815","TLE_LINE1":"1 52270U 22041K   22317.82131813  .00000463  00000-0  47149-4 0  9999","ARG_OF_PERICENTER":"71.2624","OBJECT_NAME":"STARLINK-3804","EPOCH":"2022-11-13T19:42:41.886432","OBJECT_TYPE":"PAYLOAD","MEAN_ANOMALY":"288.8513","RCS_SIZE":"LARGE","FILE":"3653957","REF_FRAME":"TEME","COUNTRY_CODE":"US","CLASSIFICATION_TYPE":"U","OBJECT_ID":"2022-041K","MEAN_MOTION":"15.08844277","SITE":"AFETR","DECAY_DATE":null,"BSTAR":"0.00004714900000","TLE_LINE2":"2 52270  53.2179 149.4145 0001332  71.2624 288.8513 15.08844277 31414","NORAD_CAT_ID":"52270","TIME_SYSTEM":"UTC","MEAN_ELEMENT_THEORY":"SGP4","PERIAPSIS":"538.811","MEAN_MOTION_DDOT":"0.0000000000000","MEAN_MOTION_DOT":"0.00000463","PERIOD":"95.437","EPHEMERIS_TYPE":"0","SEMIMAJOR_AXIS":"6917.867","LAUNCH_DATE":"2022-04-21","ECCENTRICITY":"0.00013320","INCLINATION":"53.2179"},{"REF_FRAME":"TEME","FILE":"3653957","COUNTRY_CODE":"US","EPOCH":"2022-11-13T18:16:33.142080","OBJECT_NAME":"STARLINK-3788","RCS_SIZE":"LARGE","MEAN_ANOMALY":"316.1143","OBJECT_TYPE":"PAYLOAD","REV_AT_EPOCH":"3140","TLE_LINE1":"1 52271U 22041L   22317.76149470 -.00000701  00000-0 -25940-4 0  9993","RA_OF_ASC_NODE":"149.6829","GP_ID":"217693564","ARG_OF_PERICENTER":"44.0030","CENTER_NAME":"EARTH","APOAPSIS":"541.332","ELEMENT_SET_NO":"999","EPHEMERIS_TYPE":"0","LAUNCH_DATE":"2022-04-21","SEMIMAJOR_AXIS":"6917.894","ECCENTRICITY":"0.00022740","INCLINATION":"53.2181","MEAN_MOTION_DDOT":"0.0000000000000","PERIAPSIS":"538.185","MEAN_MOTION_DOT":"-0.00000701","PERIOD":"95.438","DECAY_DATE":null,"TLE_LINE2":"2 52271  53.2181 149.6829 0002274  44.0030 316.1143 15.08835699 31405","BSTAR":"-0.00002594000000","MEAN_ELEMENT_THEORY":"SGP4","TIME_SYSTEM":"UTC","NORAD_CAT_ID":"52271","CLASSIFICATION_TYPE":"U","OBJECT_ID":"2022-041L","SITE":"AFETR","MEAN_MOTION":"15.08835699"},{"SEMIMAJOR_AXIS":"6917.855","LAUNCH_DATE":"2022-04-21","INCLINATION":"53.2177","ECCENTRICITY":"0.00018490","EPHEMERIS_TYPE":"0","PERIOD":"95.437","MEAN_MOTION_DDOT":"0.0000000000000","PERIAPSIS":"538.441","MEAN_MOTION_DOT":"0.00001434","TLE_LINE2":"2 52272  53.2177 149.4316 0001849  54.7093 305.4071 15.08848372 31418","BSTAR":"0.00010818000000","MEAN_ELEMENT_THEORY":"SGP4","TIME_SYSTEM":"UTC","NORAD_CAT_ID":"52272","DECAY_DATE":null,"OBJECT_ID":"2022-041M","SITE":"AFETR","MEAN_MOTION":"15.08848372","CLASSIFICATION_TYPE":"U","REF_FRAME":"TEME","FILE":"3653957","COUNTRY_CODE":"US","RCS_SIZE":"LARGE","MEAN_ANOMALY":"305.4071","OBJECT_TYPE":"PAYLOAD","EPOCH":"2022-11-13T19:37:25.298688","OBJECT_NAME":"STARLINK-3781","ARG_OF_PERICENTER":"54.7093","REV_AT_EPOCH":"3141","TLE_LINE1":"1 52272U 22041M   22317.81765392  .00001434  00000-0  10818-3 0  9996","RA_OF_ASC_NODE":"149.4316","GP_ID":"217694315","ELEMENT_SET_NO":"999","CENTER_NAME":"EARTH","APOAPSIS":"540.999"},{"ELEMENT_SET_NO":"999","APOAPSIS":"541.003","CENTER_NAME":"EARTH","ARG_OF_PERICENTER":"52.9688","GP_ID":"217694567","RA_OF_ASC_NODE":"139.7001","TLE_LINE1":"1 52273U 22041N   22317.75600541 -.00000313  00000-0 -15336-5 0  9993","REV_AT_EPOCH":"3154","OBJECT_TYPE":"PAYLOAD","MEAN_ANOMALY":"307.1472","RCS_SIZE":"LARGE","OBJECT_NAME":"STARLINK-3782","EPOCH":"2022-11-13T18:08:38.867424","COUNTRY_CODE":"US","FILE":"3653957","REF_FRAME":"TEME","MEAN_MOTION":"15.08841943","SITE":"AFETR","OBJECT_ID":"2022-041N","CLASSIFICATION_TYPE":"U","NORAD_CAT_ID":"52273","TIME_SYSTEM":"UTC","MEAN_ELEMENT_THEORY":"SGP4","BSTAR":"-0.00000153360000","TLE_LINE2":"2 52273  53.2176 139.7001 0001827  52.9688 307.1472 15.08841943 31542","DECAY_DATE":null,"PERIOD":"95.437","MEAN_MOTION_DOT":"-0.00000313","PERIAPSIS":"538.476","MEAN_MOTION_DDOT":"0.0000000000000","ECCENTRICITY":"0.00018270","INCLINATION":"53.2176","LAUNCH_DATE":"2022-04-21","SEMIMAJOR_AXIS":"6917.874","EPHEMERIS_TYPE":"0"},{"TLE_LINE2":"2 52274  53.2188 149.4508 0002275  41.5299 318.5866 15.08836130 31417","BSTAR":"-0.00016074000000","MEAN_ELEMENT_THEORY":"SGP4","NORAD_CAT_ID":"52274","TIME_SYSTEM":"UTC","DECAY_DATE":null,"OBJECT_ID":"2022-041P","SITE":"AFETR","MEAN_MOTION":"15.08836130","CLASSIFICATION_TYPE":"U","LAUNCH_DATE":"2022-04-21","SEMIMAJOR_AXIS":"6917.892","ECCENTRICITY":"0.00022750","INCLINATION":"53.2188","EPHEMERIS_TYPE":"0","PERIOD":"95.438","MEAN_MOTION_DDOT":"0.0000000000000","PERIAPSIS":"538.183","MEAN_MOTION_DOT":"-0.00002845","ARG_OF_PERICENTER":"41.5299","REV_AT_EPOCH":"3141","TLE_LINE1":"1 52274U 22041P   22317.81300306 -.00002845  00000-0 -16074-3 0  9997","RA_OF_ASC_NODE":"149.4508","GP_ID":"217693315","ELEMENT_SET_NO":"999","CENTER_NAME":"EARTH","APOAPSIS":"541.331","REF_FRAME":"TEME","FILE":"3653957","COUNTRY_CODE":"US","RCS_SIZE":"LARGE","MEAN_ANOMALY":"318.5866","OBJECT_TYPE":"PAYLOAD","EPOCH":"2022-11-13T19:30:43.464384","OBJECT_NAME":"STARLINK-3790"},{"PERIOD":"95.437","MEAN_MOTION_DOT":"0.00001541","PERIAPSIS":"538.022","MEAN_MOTION_DDOT":"0.0000000000000","INCLINATION":"53.2169","ECCENTRICITY":"0.00024560","LAUNCH_DATE":"2022-04-21","SEMIMAJOR_AXIS":"6917.856","EPHEMERIS_TYPE":"0","MEAN_MOTION":"15.08848045","SITE":"AFETR","OBJECT_ID":"2022-041Q","CLASSIFICATION_TYPE":"U","NORAD_CAT_ID":"52275","TIME_SYSTEM":"UTC","MEAN_ELEMENT_THEORY":"SGP4","BSTAR":"0.00011489000000","TLE_LINE2":"2 52275  53.2169 149.4193 0002456  34.5398 325.5753 15.08848045 31411","DECAY_DATE":null,"OBJECT_TYPE":"PAYLOAD","MEAN_ANOMALY":"325.5753","RCS_SIZE":"LARGE","OBJECT_NAME":"STARLINK-3784","EPOCH":"2022-11-13T19:41:20.418144","COUNTRY_CODE":"US","FILE":"3653957","REF_FRAME":"TEME","ELEMENT_SET_NO":"999","APOAPSIS":"541.420","CENTER_NAME":"EARTH","ARG_OF_PERICENTER":"34.5398","RA_OF_ASC_NODE":"149.4193","GP_ID":"217693065","TLE_LINE1":"1 52275U 22041Q   22317.82037521  .00001541  00000-0  11489-3 0  9990","REV_AT_EPOCH":"3141"},{"COUNTRY_CODE":"US","REF_FRAME":"TEME","FILE":"3653957","EPOCH":"2022-11-13T19:25:26.788512","OBJECT_NAME":"STARLINK-3778","RCS_SIZE":"LARGE","MEAN_ANOMALY":"310.2658","OBJECT_TYPE":"PAYLOAD","TLE_LINE1":"1 52276U 22041R   22317.80933783  .00001622  00000-0  11999-3 0  9990","RA_OF_ASC_NODE":"149.4730","GP_ID":"217693816","REV_AT_EPOCH":"3141","ARG_OF_PERICENTER":"49.8504","CENTER_NAME":"EARTH","APOAPSIS":"541.069","ELEMENT_SET_NO":"999","EPHEMERIS_TYPE":"0","INCLINATION":"53.2161","ECCENTRICITY":"0.00019520","LAUNCH_DATE":"2022-04-21","SEMIMAJOR_AXIS":"6917.854","MEAN_MOTION_DOT":"0.00001622","MEAN_MOTION_DDOT":"0.0000000000000","PERIAPSIS":"538.368","PERIOD":"95.437","DECAY_DATE":null,"MEAN_ELEMENT_THEORY":"SGP4","TIME_SYSTEM":"UTC","NORAD_CAT_ID":"52276","TLE_LINE2":"2 52276  53.2161 149.4730 0001952  49.8504 310.2658 15.08848785 31415","BSTAR":"0.00011999000000","CLASSIFICATION_TYPE":"U","SITE":"AFETR","MEAN_MOTION":"15.08848785","OBJECT_ID":"2022-041R"}];
